COSMOS 2419 (714)       
1 28915U 05050A   16330.41696200 -.00000057  00000-0  00000+0 0  9998
2 28915  65.3986  72.7238 0014253 355.2929 355.7534  2.13106400 84981
COSMOS 2425 (716)       
1 29670U 06062A   16330.47887875 -.00000035  00000-0  10000-3 0  9998
2 29670  65.5608 311.7284 0021675 337.8081 116.3185  2.13104943 77199
COSMOS 2426 (717)       
1 29671U 06062B   16330.55096295 -.00000035  00000-0  10000-3 0  9996
2 29671  65.5787 311.8106 0017245 174.8288 194.3514  2.13103054 77204
COSMOS 2424 (715)       
1 29672U 06062C   16330.62776317 -.00000036  00000-0  10000-3 0  9996
2 29672  65.5627 311.7333 0016567 174.0869  69.9380  2.13102151 77195
COSMOS 2433 (720)       
1 32275U 07052A   16331.46589527 -.00000056  00000-0  10000-3 0  9999
2 32275  65.4130  72.4623 0002297 225.0829  98.4041  2.13104926 70722
COSMOS 2432 (719)       
1 32276U 07052B   16331.50586051 -.00000056  00000-0  10000-3 0  9994
2 32276  65.4257  72.5300 0009949 337.7750 329.7854  2.13104061 70723
COSMOS 2434 (721)       
1 32393U 07065A   16331.27859034 -.00000040  00000-0  00000+0 0  9994
2 32393  65.1779 310.9469 0002041 154.4554 276.1905  2.13102829 69434
COSMOS 2436 (723)       
1 32395U 07065C   16330.20277259 -.00000035  00000-0  10000-3 0  9990
2 32395  65.1919 311.0287 0017014 344.3868  72.9550  2.13102870 69340
COSMOS 2443 (725)       
1 33379U 08046B   16331.19333891 -.00000058  00000-0  00000+0 0  9997
2 33379  65.3429  71.8737 0017121 182.5971 194.7126  2.13100652 63597
COSMOS 2456 (730)       
1 36111U 09070A   16331.38138034  .00000083  00000-0  00000+0 0  9992
2 36111  64.1781 190.5132 0003628 334.6381 345.1617  2.13102985 54095
COSMOS 2457 (733)       
1 36112U 09070B   16331.03908150  .00000080  00000-0  00000+0 0  9996
2 36112  64.1605 190.4488 0006888 153.5024  33.2043  2.13101693 54090
COSMOS 2458 (734)       
1 36113U 09070C   16330.47361529  .00000075  00000-0  10000-3 0  9996
2 36113  64.1654 190.4748 0002547  53.0217 107.5383  2.13101879 54087
COSMOS 2459 (731)       
1 36400U 10007A   16331.33638709 -.00000058  00000-0  10000-3 0  9992
2 36400  65.3224  71.5977 0026341 354.2328  93.7945  2.13102161 52456
COSMOS 2461 (735)       
1 36401U 10007B   16330.75877297 -.00000059  00000-0  10000-3 0  9996
2 36401  65.3162  71.5972 0006861  83.0989 192.4056  2.13102178 52434
COSMOS 2460 (732)       
1 36402U 10007C   16331.09943497 -.00000058  00000-0  10000-3 0  9990
2 36402  65.3054  71.5605 0001473 147.1666  71.2809  2.13101844 52446
COSMOS 2465 (737)       
1 37138U 10041B   16330.44228801 -.00000037  00000-0  00000+0 0  9990
2 37138  64.7783 311.0665 0035534 176.1056  16.2650  2.13103394 48500
COSMOS 2464 (736)       
1 37139U 10041C   16330.48207478 -.00000037  00000-0  00000+0 0  9992
2 37139  64.7851 311.0626 0021890   5.2350  42.0600  2.13102606 48511
COSMOS 2471 (701K)      
1 37372U 11009A   16331.19625481 -.00000058  00000-0  00000+0 0  9996
2 37372  65.3027  71.5051 0008026 225.7756 200.0807  2.13102794 44729
COSMOS 2474 (742)       
1 37829U 11055A   16331.10459861  .00000080  00000-0  00000+0 0  9996
2 37829  64.5028 191.0022 0006714 247.7762  80.3645  2.13101915 40085
COSMOS 2476 (744)       
1 37867U 11064A   16331.30215785  .00000082  00000-0  00000+0 0  9997
2 37867  64.4820 191.0738 0015807 243.3544 282.2271  2.13101959 39447
COSMOS 2477 (745)       
1 37868U 11064B   16330.29855765  .00000072  00000-0  00000+0 0  9992
2 37868  64.4918 191.1492 0013862 244.4030  50.5003  2.13101919 39372
COSMOS 2475 (743)       
1 37869U 11064C   16330.36685770  .00000073  00000-0  00000+0 0  9999
2 37869  64.4975 191.1364 0018871 274.2170  29.3632  2.13102191 39381
COSMOS 2485 (747)       
1 39155U 13019A   16331.16651199  .00000081  00000-0  00000+0 0  9997
2 39155  64.6517 191.0635 0016193 237.5511 229.0707  2.13102070 27915
COSMOS 2492 (754)       
1 39620U 14012A   16330.42824728 -.00000059  00000-0  10000-3 0  9997
2 39620  65.1943  71.5484 0013415 332.8680 321.0401  2.13103463 20841
COSMOS 2500 (755)       
1 40001U 14032A   16330.72945811 -.00000059  00000-0  00000+0 0  9999
2 40001  65.1348  71.5503 0006988 194.7197 193.7239  2.13102799 19079
COSMOS 2501 (702K)      
1 40315U 14075A   16330.49165817 -.00000037  00000-0  00000+0 0  9994
2 40315  64.5114 312.4747 0016171 215.7450 158.5637  2.13099483 15475
COSMOS 2514 (751)       
1 41330U 16008A   16330.66903979 -.00000059  00000-0  00000+0 0  9992
2 41330  64.9358  71.7477 0009992 209.8701 311.6762  2.13103362  6235
COSMOS 2516 (753)       
1 41554U 16032A   16331.37270935 -.00000041  00000-0  00000+0 0  9996
2 41554  64.7302 312.1528 0013911 230.6589   4.4969  2.13101616  3852
